{"type":"FeatureCollection","features":[{"type":"Feature","properties":{"NAME":"1200 Promenade"},"geometry":{"type":"Point","coordinates":[-119.204692,40.785673]}},{"type":"Feature","properties":{"NAME":"3 & B Plaza"},"geometry":{"type":"Point","coordinates":[-119.199675,40.777008]}},{"type":"Feature","properties":{"NAME":"300 Portal"},"geometry":{"type":"Point","coordinates":[-119.201501,40.778396]}},{"type":"Feature","properties":{"NAME":"300 Promenade"},"geometry":{"type":"Point","coordinates":[-119.204718,40.780841]}},{"type":"Feature","properties":{"NAME":"430 & G Plaza"},"geometry":{"type":"Point","coordinates":[-119.207883,40.770004]}},{"type":"Feature","properties":{"NAME":"430 Portal"},"geometry":{"type":"Point","coordinates":[-119.207884,40.776386]}},{"type":"Feature","properties":{"NAME":"600 Portal"},"geometry":{"type":"Point","coordinates":[-119.213611,40.778893]}},{"type":"Feature","properties":{"NAME":"600 Promenade"},"geometry":{"type":"Point","coordinates":[-119.210748,40.78107]}},{"type":"Feature","properties":{"NAME":"730 & G Plaza"},"geometry":{"type":"Point","coordinates":[-119.225308,40.783245]}},{"type":"Feature","properties":{"NAME":"730 Portal"},"geometry":{"type":"Point","coordinates":[-119.216911,40.783247]}},{"type":"Feature","properties":{"NAME":"9 & B Plaza"},"geometry":{"type":"Point","coordinates":[-119.216094,40.789487]}},{"type":"Feature","properties":{"NAME":"900 Portal"},"geometry":{"type":"Point","coordinates":[-119.214268,40.788099]}},{"type":"Feature","properties":{"NAME":"900 Promenade"},"geometry":{"type":"Point","coordinates":[-119.211076,40.785673]}},{"type":"Feature","properties":{"NAME":"Airport"},"geometry":{"type":"Point","coordinates":[-119.210102,40.760545]}},{"type":"Feature","properties":{"NAME":"Center Camp Plaza"},"geometry":{"type":"Point","coordinates":[-119.215612,40.777372]}},{"type":"Feature","properties":{"NAME":"HEaT"},"geometry":{"type":"Point","coordinates":[-119.212286,40.776573]}},{"type":"Feature","properties":{"NAME":"Media Mecca"},"geometry":{"type":"Point","coordinates":[-119.216316,40.779304]}},{"type":"Feature","properties":{"NAME":"Rampart"},"geometry":{"type":"Point","coordinates":[-119.211642,40.77635]}},{"type":"Feature","properties":{"NAME":"ESD Station 3"},"geometry":{"type":"Point","coordinates":[-119.198981,40.776198]}},{"type":"Feature","properties":{"NAME":"ESD Station 9"},"geometry":{"type":"Point","coordinates":[-119.216788,40.790296]}},{"type":"Feature","properties":{"NAME":"Playa Info"},"geometry":{"type":"Point","coordinates":[-119.213045,40.777864]}},{"type":"Feature","properties":{"NAME":"Greeters"},"geometry":{"type":"Point","coordinates":[-119.225403,40.769913]}},{"type":"Feature","properties":{"NAME":"Point 2"},"geometry":{"type":"Point","coordinates":[-119.221408,40.803521]}},{"type":"Feature","properties":{"NAME":"Point 3"},"geometry":{"type":"Point","coordinates":[-119.186723,40.799327]}},{"type":"Feature","properties":{"NAME":"Point 4"},"geometry":{"type":"Point","coordinates":[-119.18124,40.772884]}},{"type":"Feature","properties":{"NAME":"Point 5"},"geometry":{"type":"Point","coordinates":[-119.212582,40.760788]}},{"type":"Feature","properties":{"NAME":"3 & G Plaza"},"geometry":{"type":"Point","coordinates":[-119.195565,40.773883]}},{"type":"Feature","properties":{"NAME":"9 & G Plaza"},"geometry":{"type":"Point","coordinates":[-119.220207,40.792611]}},{"type":"Feature","properties":{"NAME":"6 & G Plaza"},"geometry":{"type":"Point","coordinates":[-119.220203,40.773881]}},{"type":"Feature","properties":{"NAME":"ESD Station 6"},"geometry":{"type":"Point","coordinates":[-119.2114,40.776793]}},{"type":"Feature","properties":{"NAME":"Center Camp"},"geometry":{"type":"Point","coordinates":[-119.215612,40.777372]}},{"type":"Feature","properties":{"NAME":"The Man"},"geometry":{"type":"Point","coordinates":[-119.207884,40.783247]}},{"type":"Feature","properties":{"NAME":"The Temple"},"geometry":{"type":"Point","coordinates":[-119.2015,40.788099]}},{"type":"Feature","properties":{"NAME":"Ranger Station Berlin"},"geometry":{"type":"Point","coordinates":[-119.198612,40.776483]}},{"type":"Feature","properties":{"NAME":"Ranger Station Tokyo"},"geometry":{"type":"Point","coordinates":[-119.217223,40.790062]}},{"type":"Feature","properties":{"NAME":"Ranger HQ"},"geometry":{"type":"Point","coordinates":[-119.21638,40.779925]}},{"type":"Feature","properties":{"NAME":"Hell Station"},"geometry":{"type":"Point","coordinates":[-119.219217,40.798106]}},{"type":"Feature","properties":{"NAME":"Ice Nine Arctica"},"geometry":{"type":"Point","coordinates":[-119.220831,40.792717]}},{"type":"Feature","properties":{"NAME":"Arctica Center Camp"},"geometry":{"type":"Point","coordinates":[-119.216763,40.778278]}},{"type":"Feature","properties":{"NAME":"Ice Cubed Arctica 3"},"geometry":{"type":"Point","coordinates":[-119.19491,40.773764]}},{"type":"Feature","properties":{"NAME":"Department of Mutant Vehicles (DMV)"},"geometry":{"type":"Point","coordinates":[-119.212463,40.778961]}},{"type":"Feature","properties":{"NAME":"Deep-Playa Music Zone (DMZ)"},"geometry":{"type":"Point","coordinates":[-119.203767,40.799204]}},{"type":"Feature","properties":{"NAME":"Point 1"},"geometry":{"type":"Point","coordinates":[-119.237418,40.77971]}},{"type":"Feature","properties":{"NAME":"430 & B Plaza"},"geometry":{"type":"Point","coordinates":[-119.207883,40.774423]}},{"type":"Feature","properties":{"NAME":"730 & B Plaza"},"geometry":{"type":"Point","coordinates":[-119.219494,40.783246]}},{"type":"Feature","properties":{"NAME":"BLM LE Substation"},"geometry":{"type":"Point","coordinates":[-119.210961,40.776665]}},{"type":"Feature","properties":{"NAME":"Burner Express Bus Depot"},"geometry":{"type":"Point","coordinates":[-119.222719,40.773355]}},{"type":"Feature","properties":{"NAME":"Walk-In Camp"},"geometry":{"type":"Point","coordinates":[-119.20166,40.766051]}},{"type":"Feature","properties":{"NAME":"Box Office"},"geometry":{"type":"Point","coordinates":[-119.23567,40.768227]}},{"type":"Feature","properties":{"NAME":"Gate Actual"},"geometry":{"type":"Point","coordinates":[-119.234088,40.768725]}},{"type":"Feature","properties":{"NAME":"Will Call Lot"},"geometry":{"type":"Point","coordinates":[-119.237046,40.768406]}},{"type":"Feature","properties":{"NAME":"D Lot"},"geometry":{"type":"Point","coordinates":[-119.233825,40.768178]}},{"type":"Feature","properties":{"NAME":"Census Checkpoint"},"geometry":{"type":"Point","coordinates":[-119.227938,40.767567]}},{"type":"Feature","properties":{"NAME":"Artery"},"geometry":{"type":"Point","coordinates":[-119.214861,40.779381]}},{"type":"Feature","properties":{"NAME":"Yellow Bike Project"},"geometry":{"type":"Point","coordinates":[-119.214545,40.773927]}},{"type":"Feature","properties":{"NAME":"Recycle Camp"},"geometry":{"type":"Point","coordinates":[-119.21303,40.776951]}},{"type":"Feature","properties":{"NAME":"Arctica Outpost"},"geometry":{"type":"Point","coordinates":[-119.223978,40.773696]}},{"type":"Feature","properties":{"NAME":"10 & B Plaza"},"geometry":{"type":"Point","coordinates":[-119.21133,40.791676]}},{"type":"Feature","properties":{"NAME":"2 & B Plaza"},"geometry":{"type":"Point","coordinates":[-119.196796,40.780628]}},{"type":"Feature","properties":{"NAME":"Deep-Playa Music Zone 2 (DMZ2)"},"geometry":{"type":"Point","coordinates":[-119.18434,40.77845]}}]}