{"type":"FeatureCollection","features":[{"type":"Feature","properties":{},"geometry":{"type":"Polygon","coordinates":[[[-119.20665,40.798589],[-119.206295,40.79857],[-119.205939,40.798547],[-119.205585,40.798518],[-119.20523,40.798485],[-119.204632,40.798418],[-119.204217,40.798363],[-119.203803,40.798302],[-119.203086,40.798179],[-119.202679,40.7981],[-119.202274,40.798015],[-119.20187,40.797922],[-119.201467,40.797824],[-119.200665,40.799646],[-119.201106,40.799754],[-119.201549,40.799855],[-119.201993,40.799949],[-119.202439,40.800036],[-119.202886,40.800116],[-119.203334,40.80019],[-119.203783,40.800256],[-119.204234,40.800315],[-119.204685,40.800368],[-119.205137,40.800413],[-119.205589,40.800451],[-119.206042,40.800483],[-119.206496,40.800507],[-119.20665,40.798589]]]}}]}