{"type":"FeatureCollection","features":[{"type":"Feature","properties":{},"geometry":{"type":"LineString","coordinates":[[-119.268229,40.748613],[-119.264034,40.74664],[-119.26385,40.746557],[-119.263663,40.746479],[-119.263472,40.746406],[-119.263278,40.746338],[-119.263081,40.746275],[-119.262882,40.746218],[-119.262679,40.746165],[-119.262475,40.746118],[-119.262268,40.746077],[-119.26206,40.746041],[-119.26185,40.746011],[-119.261639,40.745986],[-119.261427,40.745967],[-119.261214,40.745953],[-119.261001,40.745945],[-119.260787,40.745943],[-119.260574,40.745946],[-119.26036,40.745955],[-119.260148,40.74597],[-119.259936,40.74599],[-119.259725,40.746016],[-119.259515,40.746047],[-119.259307,40.746084],[-119.259101,40.746127],[-119.258897,40.746175],[-119.258695,40.746228],[-119.258496,40.746286],[-119.258299,40.74635],[-119.258106,40.746419],[-119.257916,40.746493],[-119.257729,40.746572],[-119.257546,40.746656],[-119.257367,40.746745],[-119.257193,40.746838],[-119.257022,40.746936],[-119.256856,40.747039],[-119.256695,40.747145],[-119.256539,40.747256],[-119.256389,40.747371],[-119.256243,40.74749],[-119.256103,40.747613],[-119.255969,40.747739],[-119.25584,40.747869],[-119.255718,40.748002],[-119.255602,40.748139],[-119.255492,40.748278],[-119.255388,40.74842],[-119.255291,40.748565],[-119.255201,40.748712],[-119.255118,40.748861],[-119.244905,40.768083],[-119.244831,40.768215],[-119.244752,40.768344],[-119.244667,40.768472],[-119.244576,40.768597],[-119.244479,40.768719],[-119.244377,40.768839],[-119.244269,40.768957],[-119.244156,40.769071],[-119.244038,40.769182],[-119.243915,40.76929],[-119.243787,40.769395],[-119.243654,40.769496],[-119.243517,40.769594],[-119.243375,40.769688],[-119.243229,40.769778],[-119.24308,40.769865],[-119.242926,40.769947],[-119.242769,40.770025],[-119.242608,40.770099],[-119.242444,40.770169],[-119.242276,40.770234],[-119.242106,40.770295],[-119.241933,40.770352],[-119.241758,40.770403],[-119.241581,40.770451],[-119.241401,40.770493],[-119.24122,40.770531],[-119.241037,40.770564],[-119.240852,40.770592],[-119.240667,40.770615],[-119.24048,40.770633],[-119.240293,40.770646],[-119.240105,40.770654],[-119.239917,40.770658],[-119.239729,40.770656],[-119.239541,40.77065],[-119.239354,40.770638],[-119.239167,40.770622],[-119.238981,40.7706],[-119.238796,40.770574],[-119.238613,40.770543],[-119.238431,40.770507],[-119.238251,40.770466],[-119.238072,40.770421],[-119.237896,40.770371],[-119.237723,40.770316],[-119.237552,40.770257],[-119.237383,40.770193],[-119.237218,40.770125],[-119.237056,40.770052],[-119.236897,40.769975],[-119.236742,40.769894],[-119.23391,40.768361],[-119.233736,40.76827],[-119.233558,40.768184],[-119.233376,40.768102],[-119.23319,40.768025],[-119.233001,40.767953],[-119.232809,40.767886],[-119.232614,40.767824],[-119.232416,40.767768],[-119.232216,40.767716],[-119.232014,40.76767],[-119.231809,40.767629],[-119.231603,40.767594],[-119.231396,40.767564],[-119.231187,40.767539],[-119.230977,40.76752],[-119.230766,40.767506],[-119.230555,40.767498],[-119.230344,40.767495],[-119.230133,40.767498],[-119.229922,40.767507],[-119.229711,40.767521],[-119.229502,40.76754],[-119.229293,40.767565],[-119.229085,40.767595],[-119.228879,40.767631],[-119.228675,40.767672],[-119.228473,40.767719],[-119.228273,40.76777],[-119.228075,40.767827],[-119.22788,40.767889],[-119.227688,40.767957],[-119.227499,40.768029],[-119.227314,40.768106],[-119.227132,40.768188],[-119.226954,40.768274],[-119.22678,40.768365],[-119.22661,40.768461],[-119.226445,40.768561],[-119.226284,40.768665],[-119.226128,40.768774],[-119.225977,40.768886],[-119.224608,40.769943]]}},{"type":"Feature","properties":{},"geometry":{"type":"LineString","coordinates":[[-119.273565,40.751444],[-119.263844,40.746874],[-119.263671,40.746796],[-119.263495,40.746722],[-119.263315,40.746653],[-119.263133,40.746589],[-119.262947,40.74653],[-119.262759,40.746476],[-119.262569,40.746427],[-119.262377,40.746383],[-119.262182,40.746344],[-119.261986,40.74631],[-119.261789,40.746281],[-119.26159,40.746258],[-119.26139,40.74624],[-119.26119,40.746227],[-119.260989,40.746219],[-119.260788,40.746217],[-119.260587,40.74622],[-119.260387,40.746229],[-119.260186,40.746243],[-119.259987,40.746262],[-119.259788,40.746286],[-119.259591,40.746316],[-119.259395,40.74635],[-119.259201,40.74639],[-119.259009,40.746436],[-119.258819,40.746486],[-119.258632,40.746541],[-119.258447,40.746601],[-119.258265,40.746666],[-119.258086,40.746735],[-119.25791,40.74681],[-119.257738,40.746889],[-119.25757,40.746972],[-119.257405,40.74706],[-119.257245,40.747152],[-119.257089,40.747249],[-119.256937,40.747349],[-119.25679,40.747454],[-119.256648,40.747562],[-119.256511,40.747674],[-119.25638,40.747789],[-119.256253,40.747908],[-119.256132,40.74803],[-119.256017,40.748156],[-119.255908,40.748284],[-119.255804,40.748415],[-119.255707,40.748549],[-119.255616,40.748685],[-119.255531,40.748824],[-119.255452,40.748964],[-119.24524,40.768186],[-119.245161,40.768326],[-119.245076,40.768465],[-119.244985,40.768601],[-119.244888,40.768734],[-119.244785,40.768865],[-119.244676,40.768993],[-119.244561,40.769118],[-119.244441,40.76924],[-119.244315,40.769358],[-119.244183,40.769473],[-119.244047,40.769585],[-119.243905,40.769693],[-119.243759,40.769797],[-119.243608,40.769898],[-119.243452,40.769994],[-119.243293,40.770086],[-119.243129,40.770174],[-119.242961,40.770257],[-119.242789,40.770336],[-119.242614,40.770411],[-119.242436,40.770481],[-119.242254,40.770546],[-119.24207,40.770606],[-119.241883,40.770661],[-119.241694,40.770711],[-119.241502,40.770756],[-119.241309,40.770797],[-119.241114,40.770832],[-119.240917,40.770862],[-119.240719,40.770886],[-119.24052,40.770906],[-119.24032,40.77092],[-119.24012,40.770929],[-119.23992,40.770932],[-119.239719,40.770931],[-119.239519,40.770924],[-119.239319,40.770911],[-119.239119,40.770894],[-119.238921,40.770871],[-119.238724,40.770843],[-119.238528,40.77081],[-119.238334,40.770771],[-119.238142,40.770728],[-119.237952,40.770679],[-119.237764,40.770626],[-119.237579,40.770568],[-119.237396,40.770504],[-119.237217,40.770436],[-119.23704,40.770363],[-119.236868,40.770286],[-119.236698,40.770204],[-119.236533,40.770118],[-119.233701,40.768584],[-119.233537,40.768499],[-119.233369,40.768418],[-119.233198,40.768341],[-119.233023,40.768268],[-119.232845,40.768201],[-119.232664,40.768138],[-119.232481,40.76808],[-119.232295,40.768026],[-119.232106,40.767978],[-119.231916,40.767934],[-119.231723,40.767896],[-119.231529,40.767862],[-119.231334,40.767834],[-119.231138,40.767811],[-119.23094,40.767793],[-119.230742,40.76778],[-119.230543,40.767772],[-119.230344,40.76777],[-119.230146,40.767772],[-119.229947,40.76778],[-119.229749,40.767794],[-119.229551,40.767812],[-119.229355,40.767835],[-119.22916,40.767864],[-119.228966,40.767898],[-119.228773,40.767936],[-119.228583,40.76798],[-119.228395,40.768029],[-119.228209,40.768082],[-119.228025,40.768141],[-119.227845,40.768204],[-119.227667,40.768272],[-119.227492,40.768344],[-119.227321,40.768421],[-119.227154,40.768503],[-119.22699,40.768589],[-119.22683,40.768679],[-119.226675,40.768773],[-119.226523,40.768871],[-119.226377,40.768973],[-119.226235,40.769079],[-119.224865,40.770135]]}},{"type":"Feature","properties":{},"geometry":{"type":"LineString","coordinates":[[-119.267849,40.749079],[-119.263654,40.747107],[-119.263492,40.747034],[-119.263327,40.746965],[-119.263159,40.7469],[-119.262988,40.74684],[-119.262814,40.746785],[-119.262637,40.746734],[-119.262459,40.746688],[-119.262279,40.746647],[-119.262096,40.74661],[-119.261913,40.746579],[-119.261727,40.746552],[-119.261541,40.74653],[-119.261354,40.746513],[-119.261166,40.746501],[-119.260978,40.746494],[-119.260789,40.746492],[-119.260601,40.746495],[-119.260413,40.746503],[-119.260225,40.746516],[-119.260038,40.746533],[-119.259852,40.746556],[-119.259667,40.746584],[-119.259484,40.746617],[-119.259302,40.746654],[-119.259122,40.746696],[-119.258944,40.746743],[-119.258768,40.746795],[-119.258594,40.746851],[-119.258424,40.746912],[-119.258256,40.746977],[-119.258091,40.747047],[-119.25793,40.747121],[-119.257772,40.7472],[-119.257618,40.747282],[-119.257468,40.747368],[-119.257321,40.747459],[-119.257179,40.747553],[-119.257041,40.747651],[-119.256908,40.747752],[-119.25678,40.747857],[-119.256656,40.747965],[-119.256538,40.748077],[-119.256425,40.748191],[-119.256317,40.748309],[-119.256214,40.748429],[-119.256117,40.748552],[-119.256026,40.748678],[-119.25594,40.748805],[-119.255861,40.748935],[-119.255787,40.749067],[-119.245574,40.768289],[-119.245491,40.768438],[-119.245401,40.768585],[-119.245304,40.768729],[-119.245201,40.768871],[-119.245092,40.76901],[-119.244976,40.769146],[-119.244854,40.769279],[-119.244726,40.769408],[-119.244592,40.769534],[-119.244452,40.769657],[-119.244307,40.769775],[-119.244157,40.76989],[-119.244001,40.770001],[-119.243841,40.770108],[-119.243676,40.77021],[-119.243506,40.770308],[-119.243332,40.770401],[-119.243153,40.77049],[-119.242971,40.770574],[-119.242785,40.770653],[-119.242595,40.770727],[-119.242403,40.770796],[-119.242207,40.77086],[-119.242008,40.770918],[-119.241807,40.770972],[-119.241603,40.77102],[-119.241398,40.771063],[-119.24119,40.7711],[-119.240981,40.771132],[-119.240771,40.771158],[-119.24056,40.771178],[-119.240348,40.771194],[-119.240135,40.771203],[-119.239922,40.771207],[-119.239709,40.771205],[-119.239496,40.771198],[-119.239283,40.771184],[-119.239072,40.771166],[-119.238861,40.771142],[-119.238651,40.771112],[-119.238444,40.771077],[-119.238237,40.771036],[-119.238033,40.77099],[-119.237831,40.770938],[-119.237631,40.770881],[-119.237435,40.770819],[-119.237241,40.770752],[-119.23705,40.77068],[-119.236863,40.770602],[-119.236679,40.77052],[-119.236499,40.770433],[-119.236324,40.770342],[-119.233491,40.768808],[-119.233337,40.768728],[-119.23318,40.768652],[-119.23302,40.76858],[-119.232856,40.768512],[-119.232689,40.768448],[-119.23252,40.768389],[-119.232347,40.768335],[-119.232173,40.768285],[-119.231996,40.768239],[-119.231818,40.768198],[-119.231637,40.768162],[-119.231456,40.768131],[-119.231272,40.768104],[-119.231088,40.768083],[-119.230903,40.768066],[-119.230717,40.768054],[-119.230531,40.768047],[-119.230345,40.768044],[-119.230158,40.768047],[-119.229972,40.768054],[-119.229786,40.768067],[-119.229601,40.768084],[-119.229417,40.768106],[-119.229234,40.768132],[-119.229052,40.768164],[-119.228872,40.7682],[-119.228693,40.768241],[-119.228517,40.768287],[-119.228343,40.768337],[-119.228171,40.768392],[-119.228001,40.768451],[-119.227835,40.768515],[-119.227671,40.768583],[-119.227511,40.768655],[-119.227353,40.768732],[-119.2272,40.768812],[-119.22705,40.768896],[-119.226904,40.768985],[-119.226762,40.769077],[-119.226625,40.769172],[-119.226492,40.769272],[-119.225122,40.770328]]}}]}