{"type":"FeatureCollection","features":[{"type":"Feature","properties":{"name":"3:00 & G Plaza"},"geometry":{"type":"Polygon","coordinates":[[[-119.195567,40.774158],[-119.195603,40.774156],[-119.195638,40.774153],[-119.195672,40.774146],[-119.195705,40.774137],[-119.195737,40.774125],[-119.195768,40.774112],[-119.195796,40.774095],[-119.195823,40.774077],[-119.195846,40.774057],[-119.195867,40.774036],[-119.195886,40.774013],[-119.195901,40.773988],[-119.195913,40.773963],[-119.195921,40.773937],[-119.195927,40.77391],[-119.195928,40.773883],[-119.195927,40.773856],[-119.195921,40.77383],[-119.195913,40.773804],[-119.195901,40.773778],[-119.195886,40.773754],[-119.195867,40.773731],[-119.195846,40.773709],[-119.195823,40.773689],[-119.195796,40.773671],[-119.195768,40.773655],[-119.195738,40.773641],[-119.195705,40.77363],[-119.195672,40.773621],[-119.195638,40.773614],[-119.195603,40.77361],[-119.195567,40.773609],[-119.195532,40.77361],[-119.195497,40.773614],[-119.195463,40.773621],[-119.195429,40.77363],[-119.195397,40.773641],[-119.195367,40.773655],[-119.195338,40.773671],[-119.195312,40.773689],[-119.195288,40.773709],[-119.195267,40.773731],[-119.195249,40.773754],[-119.195234,40.773778],[-119.195222,40.773804],[-119.195213,40.77383],[-119.195208,40.773856],[-119.195206,40.773883],[-119.195208,40.77391],[-119.195213,40.773937],[-119.195222,40.773963],[-119.195234,40.773988],[-119.195249,40.774013],[-119.195267,40.774036],[-119.195288,40.774057],[-119.195312,40.774077],[-119.195338,40.774095],[-119.195367,40.774111],[-119.195397,40.774125],[-119.195429,40.774137],[-119.195462,40.774146],[-119.195497,40.774152],[-119.195532,40.774156],[-119.195567,40.774158]]]}},{"type":"Feature","properties":{"name":"4:30 & G Plaza"},"geometry":{"type":"Polygon","coordinates":[[[-119.207884,40.77028],[-119.207919,40.770279],[-119.207955,40.770275],[-119.207989,40.770268],[-119.208022,40.770259],[-119.208054,40.770248],[-119.208085,40.770234],[-119.208113,40.770218],[-119.208139,40.7702],[-119.208163,40.77018],[-119.208184,40.770158],[-119.208202,40.770135],[-119.208218,40.770111],[-119.20823,40.770085],[-119.208238,40.770059],[-119.208243,40.770032],[-119.208245,40.770005],[-119.208243,40.769979],[-119.208238,40.769952],[-119.20823,40.769926],[-119.208218,40.7699],[-119.208202,40.769876],[-119.208184,40.769853],[-119.208163,40.769831],[-119.208139,40.769811],[-119.208113,40.769793],[-119.208085,40.769777],[-119.208054,40.769763],[-119.208022,40.769752],[-119.207989,40.769743],[-119.207955,40.769736],[-119.207919,40.769732],[-119.207884,40.769731],[-119.207849,40.769732],[-119.207814,40.769736],[-119.207779,40.769743],[-119.207746,40.769752],[-119.207714,40.769763],[-119.207684,40.769777],[-119.207655,40.769793],[-119.207629,40.769811],[-119.207605,40.769831],[-119.207584,40.769853],[-119.207566,40.769876],[-119.207551,40.7699],[-119.207539,40.769926],[-119.20753,40.769952],[-119.207525,40.769979],[-119.207523,40.770005],[-119.207525,40.770032],[-119.20753,40.770059],[-119.207539,40.770085],[-119.207551,40.770111],[-119.207566,40.770135],[-119.207584,40.770158],[-119.207605,40.77018],[-119.207629,40.7702],[-119.207655,40.770218],[-119.207684,40.770234],[-119.207714,40.770248],[-119.207746,40.770259],[-119.207779,40.770268],[-119.207814,40.770275],[-119.207849,40.770279],[-119.207884,40.77028]]]}},{"type":"Feature","properties":{"name":"6:00 & G Plaza"},"geometry":{"type":"Polygon","coordinates":[[[-119.220201,40.774158],[-119.220236,40.774156],[-119.220271,40.774152],[-119.220306,40.774146],[-119.220339,40.774137],[-119.220371,40.774125],[-119.220402,40.774111],[-119.22043,40.774095],[-119.220456,40.774077],[-119.22048,40.774057],[-119.220501,40.774036],[-119.220519,40.774013],[-119.220534,40.773988],[-119.220546,40.773963],[-119.220555,40.773937],[-119.22056,40.77391],[-119.220562,40.773883],[-119.22056,40.773856],[-119.220555,40.77383],[-119.220546,40.773804],[-119.220534,40.773778],[-119.220519,40.773754],[-119.220501,40.773731],[-119.22048,40.773709],[-119.220456,40.773689],[-119.22043,40.773671],[-119.220401,40.773655],[-119.220371,40.773641],[-119.220339,40.77363],[-119.220306,40.773621],[-119.220271,40.773614],[-119.220236,40.77361],[-119.220201,40.773609],[-119.220165,40.77361],[-119.22013,40.773614],[-119.220096,40.773621],[-119.220063,40.77363],[-119.220031,40.773641],[-119.22,40.773655],[-119.219972,40.773671],[-119.219946,40.773689],[-119.219922,40.773709],[-119.219901,40.773731],[-119.219882,40.773754],[-119.219867,40.773778],[-119.219855,40.773804],[-119.219847,40.77383],[-119.219842,40.773856],[-119.21984,40.773883],[-119.219842,40.77391],[-119.219847,40.773937],[-119.219855,40.773963],[-119.219867,40.773988],[-119.219883,40.774013],[-119.219901,40.774036],[-119.219922,40.774057],[-119.219946,40.774077],[-119.219972,40.774095],[-119.22,40.774112],[-119.220031,40.774125],[-119.220063,40.774137],[-119.220096,40.774146],[-119.220131,40.774152],[-119.220166,40.774156],[-119.220201,40.774158]]]}},{"type":"Feature","properties":{"name":"7:30 & G Plaza"},"geometry":{"type":"Polygon","coordinates":[[[-119.225305,40.783521],[-119.225341,40.783519],[-119.225376,40.783515],[-119.22541,40.783509],[-119.225443,40.7835],[-119.225475,40.783488],[-119.225506,40.783474],[-119.225534,40.783458],[-119.22556,40.78344],[-119.225584,40.78342],[-119.225605,40.783399],[-119.225624,40.783375],[-119.225639,40.783351],[-119.225651,40.783326],[-119.225659,40.7833],[-119.225664,40.783273],[-119.225666,40.783246],[-119.225664,40.783219],[-119.225659,40.783193],[-119.225651,40.783166],[-119.225639,40.783141],[-119.225624,40.783117],[-119.225605,40.783094],[-119.225584,40.783072],[-119.22556,40.783052],[-119.225534,40.783034],[-119.225506,40.783018],[-119.225475,40.783004],[-119.225443,40.782993],[-119.22541,40.782983],[-119.225375,40.782977],[-119.22534,40.782973],[-119.225305,40.782972],[-119.22527,40.782973],[-119.225235,40.782977],[-119.2252,40.782984],[-119.225167,40.782993],[-119.225135,40.783004],[-119.225104,40.783018],[-119.225076,40.783034],[-119.22505,40.783052],[-119.225026,40.783072],[-119.225005,40.783094],[-119.224987,40.783117],[-119.224972,40.783141],[-119.22496,40.783167],[-119.224951,40.783193],[-119.224946,40.783219],[-119.224944,40.783246],[-119.224946,40.783273],[-119.224951,40.7833],[-119.22496,40.783326],[-119.224972,40.783351],[-119.224987,40.783376],[-119.225005,40.783399],[-119.225026,40.78342],[-119.22505,40.78344],[-119.225076,40.783458],[-119.225105,40.783474],[-119.225135,40.783488],[-119.225167,40.7835],[-119.2252,40.783509],[-119.225235,40.783515],[-119.22527,40.783519],[-119.225305,40.783521]]]}},{"type":"Feature","properties":{"name":"9:00 & G Plaza"},"geometry":{"type":"Polygon","coordinates":[[[-119.220204,40.792885],[-119.22024,40.792883],[-119.220275,40.792879],[-119.220309,40.792873],[-119.220343,40.792864],[-119.220375,40.792852],[-119.220405,40.792838],[-119.220433,40.792822],[-119.22046,40.792804],[-119.220484,40.792784],[-119.220505,40.792763],[-119.220523,40.79274],[-119.220538,40.792715],[-119.22055,40.79269],[-119.220559,40.792664],[-119.220564,40.792637],[-119.220565,40.79261],[-119.220564,40.792583],[-119.220559,40.792557],[-119.22055,40.792531],[-119.220538,40.792505],[-119.220523,40.792481],[-119.220505,40.792458],[-119.220483,40.792436],[-119.22046,40.792416],[-119.220433,40.792398],[-119.220405,40.792382],[-119.220375,40.792368],[-119.220343,40.792357],[-119.220309,40.792348],[-119.220275,40.792341],[-119.22024,40.792337],[-119.220204,40.792336],[-119.220169,40.792337],[-119.220134,40.792341],[-119.220099,40.792348],[-119.220066,40.792357],[-119.220034,40.792368],[-119.220004,40.792382],[-119.219975,40.792398],[-119.219949,40.792416],[-119.219925,40.792436],[-119.219904,40.792458],[-119.219886,40.792481],[-119.219871,40.792505],[-119.219859,40.792531],[-119.21985,40.792557],[-119.219845,40.792583],[-119.219843,40.79261],[-119.219845,40.792637],[-119.21985,40.792664],[-119.219859,40.79269],[-119.219871,40.792715],[-119.219886,40.79274],[-119.219904,40.792763],[-119.219925,40.792784],[-119.219949,40.792804],[-119.219975,40.792822],[-119.220004,40.792838],[-119.220034,40.792852],[-119.220066,40.792864],[-119.2201,40.792873],[-119.220134,40.792879],[-119.220169,40.792883],[-119.220204,40.792885]]]}},{"type":"Feature","properties":{"name":"9:00 & B Plaza"},"geometry":{"type":"Polygon","coordinates":[[[-119.216092,40.78976],[-119.216128,40.789759],[-119.216163,40.789755],[-119.216197,40.789748],[-119.21623,40.789739],[-119.216262,40.789728],[-119.216293,40.789714],[-119.216321,40.789698],[-119.216348,40.78968],[-119.216371,40.78966],[-119.216392,40.789638],[-119.216411,40.789615],[-119.216426,40.789591],[-119.216438,40.789565],[-119.216446,40.789539],[-119.216452,40.789513],[-119.216453,40.789486],[-119.216452,40.789459],[-119.216446,40.789432],[-119.216438,40.789406],[-119.216426,40.789381],[-119.216411,40.789356],[-119.216392,40.789333],[-119.216371,40.789311],[-119.216348,40.789292],[-119.216321,40.789273],[-119.216293,40.789257],[-119.216262,40.789244],[-119.21623,40.789232],[-119.216197,40.789223],[-119.216163,40.789216],[-119.216128,40.789212],[-119.216092,40.789211],[-119.216057,40.789212],[-119.216022,40.789216],[-119.215987,40.789223],[-119.215954,40.789232],[-119.215922,40.789244],[-119.215892,40.789257],[-119.215863,40.789273],[-119.215837,40.789292],[-119.215813,40.789312],[-119.215792,40.789333],[-119.215774,40.789356],[-119.215759,40.789381],[-119.215747,40.789406],[-119.215738,40.789432],[-119.215733,40.789459],[-119.215731,40.789486],[-119.215733,40.789513],[-119.215738,40.789539],[-119.215747,40.789565],[-119.215759,40.789591],[-119.215774,40.789615],[-119.215792,40.789638],[-119.215813,40.78966],[-119.215837,40.78968],[-119.215863,40.789698],[-119.215892,40.789714],[-119.215922,40.789728],[-119.215954,40.789739],[-119.215987,40.789748],[-119.216022,40.789755],[-119.216057,40.789759],[-119.216092,40.78976]]]}},{"type":"Feature","properties":{"name":"7:30 & B Plaza"},"geometry":{"type":"Polygon","coordinates":[[[-119.219492,40.783521],[-119.219527,40.78352],[-119.219562,40.783516],[-119.219597,40.78351],[-119.21963,40.7835],[-119.219662,40.783489],[-119.219692,40.783475],[-119.219721,40.783459],[-119.219747,40.783441],[-119.219771,40.783421],[-119.219792,40.783399],[-119.21981,40.783376],[-119.219825,40.783352],[-119.219837,40.783327],[-119.219846,40.7833],[-119.219851,40.783274],[-119.219853,40.783247],[-119.219851,40.78322],[-119.219846,40.783193],[-119.219837,40.783167],[-119.219825,40.783142],[-119.21981,40.783117],[-119.219792,40.783094],[-119.219771,40.783073],[-119.219747,40.783053],[-119.219721,40.783035],[-119.219692,40.783019],[-119.219662,40.783005],[-119.21963,40.782993],[-119.219597,40.782984],[-119.219562,40.782978],[-119.219527,40.782974],[-119.219492,40.782972],[-119.219456,40.782974],[-119.219421,40.782978],[-119.219387,40.782984],[-119.219354,40.782993],[-119.219322,40.783005],[-119.219291,40.783019],[-119.219263,40.783035],[-119.219236,40.783053],[-119.219213,40.783073],[-119.219192,40.783094],[-119.219173,40.783118],[-119.219158,40.783142],[-119.219146,40.783167],[-119.219138,40.783193],[-119.219132,40.78322],[-119.219131,40.783247],[-119.219132,40.783274],[-119.219138,40.7833],[-119.219146,40.783327],[-119.219158,40.783352],[-119.219173,40.783376],[-119.219192,40.783399],[-119.219213,40.783421],[-119.219237,40.783441],[-119.219263,40.783459],[-119.219291,40.783475],[-119.219322,40.783489],[-119.219354,40.7835],[-119.219387,40.78351],[-119.219421,40.783516],[-119.219456,40.78352],[-119.219492,40.783521]]]}},{"type":"Feature","properties":{"name":"4:30 & B Plaza"},"geometry":{"type":"Polygon","coordinates":[[[-119.207884,40.774699],[-119.207919,40.774697],[-119.207955,40.774693],[-119.207989,40.774687],[-119.208022,40.774678],[-119.208054,40.774666],[-119.208085,40.774652],[-119.208113,40.774636],[-119.208139,40.774618],[-119.208163,40.774598],[-119.208184,40.774577],[-119.208203,40.774554],[-119.208218,40.774529],[-119.20823,40.774504],[-119.208238,40.774478],[-119.208243,40.774451],[-119.208245,40.774424],[-119.208243,40.774397],[-119.208238,40.774371],[-119.20823,40.774345],[-119.208218,40.774319],[-119.208203,40.774295],[-119.208184,40.774272],[-119.208163,40.77425],[-119.208139,40.77423],[-119.208113,40.774212],[-119.208085,40.774196],[-119.208054,40.774182],[-119.208022,40.774171],[-119.207989,40.774162],[-119.207955,40.774155],[-119.207919,40.774151],[-119.207884,40.77415],[-119.207849,40.774151],[-119.207814,40.774155],[-119.207779,40.774162],[-119.207746,40.774171],[-119.207714,40.774182],[-119.207684,40.774196],[-119.207655,40.774212],[-119.207629,40.77423],[-119.207605,40.77425],[-119.207584,40.774272],[-119.207566,40.774295],[-119.207551,40.774319],[-119.207539,40.774345],[-119.20753,40.774371],[-119.207525,40.774397],[-119.207523,40.774424],[-119.207525,40.774451],[-119.20753,40.774478],[-119.207539,40.774504],[-119.207551,40.774529],[-119.207566,40.774554],[-119.207584,40.774577],[-119.207605,40.774598],[-119.207629,40.774618],[-119.207655,40.774636],[-119.207684,40.774652],[-119.207714,40.774666],[-119.207746,40.774678],[-119.207779,40.774687],[-119.207814,40.774693],[-119.207849,40.774697],[-119.207884,40.774699]]]}},{"type":"Feature","properties":{"name":"3:00 & B Plaza"},"geometry":{"type":"Polygon","coordinates":[[[-119.199678,40.777283],[-119.199713,40.777282],[-119.199748,40.777278],[-119.199782,40.777271],[-119.199816,40.777262],[-119.199848,40.777251],[-119.199878,40.777237],[-119.199907,40.777221],[-119.199933,40.777203],[-119.199957,40.777183],[-119.199978,40.777161],[-119.199996,40.777138],[-119.200011,40.777114],[-119.200023,40.777088],[-119.200032,40.777062],[-119.200037,40.777036],[-119.200039,40.777009],[-119.200037,40.776982],[-119.200032,40.776955],[-119.200023,40.776929],[-119.200011,40.776904],[-119.199996,40.776879],[-119.199978,40.776856],[-119.199957,40.776835],[-119.199933,40.776815],[-119.199907,40.776797],[-119.199878,40.77678],[-119.199848,40.776767],[-119.199816,40.776755],[-119.199782,40.776746],[-119.199748,40.776739],[-119.199713,40.776736],[-119.199678,40.776734],[-119.199642,40.776736],[-119.199607,40.776739],[-119.199573,40.776746],[-119.199539,40.776755],[-119.199507,40.776767],[-119.199477,40.77678],[-119.199449,40.776796],[-119.199422,40.776815],[-119.199398,40.776835],[-119.199377,40.776856],[-119.199359,40.776879],[-119.199344,40.776904],[-119.199332,40.776929],[-119.199323,40.776955],[-119.199318,40.776982],[-119.199316,40.777009],[-119.199318,40.777036],[-119.199323,40.777062],[-119.199332,40.777088],[-119.199344,40.777114],[-119.199359,40.777138],[-119.199377,40.777161],[-119.199398,40.777183],[-119.199422,40.777203],[-119.199448,40.777221],[-119.199477,40.777237],[-119.199507,40.777251],[-119.199539,40.777262],[-119.199573,40.777271],[-119.199607,40.777278],[-119.199642,40.777282],[-119.199678,40.777283]]]}},{"type":"Feature","properties":{"name":"Center Camp Plaza"},"geometry":{"type":"Polygon","coordinates":[[[-119.21554,40.778141],[-119.215632,40.778138],[-119.215723,40.778127],[-119.215812,40.77811],[-119.215899,40.778087],[-119.215982,40.778057],[-119.216022,40.77804],[-119.216061,40.778021],[-119.216099,40.778001],[-119.216135,40.777979],[-119.21617,40.777956],[-119.216204,40.777932],[-119.216235,40.777907],[-119.216265,40.77788],[-119.216294,40.777853],[-119.21632,40.777824],[-119.216345,40.777794],[-119.216368,40.777764],[-119.216388,40.777733],[-119.216407,40.777701],[-119.216424,40.777668],[-119.216438,40.777635],[-119.21645,40.777601],[-119.21646,40.777567],[-119.216468,40.777532],[-119.216474,40.777497],[-119.216477,40.777463],[-119.216478,40.777428],[-119.216477,40.777393],[-119.216474,40.777358],[-119.216468,40.777323],[-119.21646,40.777288],[-119.21645,40.777254],[-119.216438,40.77722],[-119.216424,40.777187],[-119.216407,40.777154],[-119.216388,40.777122],[-119.216368,40.777091],[-119.216345,40.777061],[-119.21632,40.777031],[-119.216294,40.777002],[-119.216265,40.776975],[-119.216235,40.776948],[-119.216203,40.776923],[-119.21617,40.776899],[-119.216135,40.776876],[-119.216099,40.776854],[-119.216061,40.776834],[-119.216022,40.776815],[-119.215982,40.776798],[-119.215899,40.776768],[-119.215812,40.776745],[-119.215723,40.776728],[-119.215632,40.776717],[-119.21554,40.776714],[-119.215448,40.776717],[-119.215356,40.776728],[-119.215267,40.776745],[-119.21518,40.776768],[-119.215097,40.776798],[-119.215057,40.776816],[-119.215018,40.776834],[-119.21498,40.776854],[-119.214944,40.776876],[-119.214909,40.776899],[-119.214876,40.776923],[-119.214844,40.776948],[-119.214814,40.776975],[-119.214786,40.777003],[-119.214759,40.777031],[-119.214734,40.777061],[-119.214712,40.777091],[-119.214691,40.777123],[-119.214672,40.777155],[-119.214656,40.777187],[-119.214641,40.77722],[-119.214629,40.777254],[-119.214619,40.777288],[-119.214611,40.777323],[-119.214605,40.777358],[-119.214602,40.777393],[-119.214601,40.777428],[-119.214602,40.777463],[-119.214605,40.777498],[-119.214611,40.777532],[-119.214619,40.777567],[-119.214629,40.777601],[-119.214641,40.777635],[-119.214656,40.777668],[-119.214672,40.777701],[-119.214691,40.777733],[-119.214712,40.777764],[-119.214734,40.777795],[-119.214759,40.777824],[-119.214786,40.777853],[-119.214814,40.77788],[-119.214844,40.777907],[-119.214876,40.777932],[-119.214909,40.777956],[-119.214944,40.777979],[-119.214981,40.778001],[-119.215018,40.778021],[-119.215057,40.77804],[-119.215097,40.778057],[-119.21518,40.778087],[-119.215267,40.778111],[-119.215357,40.778128],[-119.215448,40.778138],[-119.21554,40.778141]]]}},{"type":"Feature","properties":{"name":"2:00 & B Plaza"},"geometry":{"type":"Polygon","coordinates":[[[-119.196289,40.780828],[-119.197091,40.780992],[-119.197132,40.780881],[-119.197187,40.78074],[-119.197252,40.780586],[-119.197312,40.780453],[-119.19697,40.780363],[-119.196868,40.780336],[-119.196526,40.780247],[-119.196462,40.780391],[-119.196395,40.780552],[-119.196343,40.780682],[-119.196289,40.780828]]]}},{"type":"Feature","properties":{"name":"10:00 & B Plaza"},"geometry":{"type":"Polygon","coordinates":[[[-119.210851,40.791452],[-119.211066,40.792062],[-119.211241,40.792024],[-119.211464,40.791973],[-119.211669,40.791923],[-119.211831,40.791881],[-119.211714,40.791621],[-119.211678,40.791544],[-119.211561,40.791284],[-119.211419,40.791321],[-119.211208,40.791372],[-119.211018,40.791416],[-119.210851,40.791452]]]}}]}