{"type":"FeatureCollection","features":[{"type":"Feature","properties":{"class":"in city"},"geometry":{"type":"Polygon","coordinates":[[[-119.213997,40.791687],[-119.214436,40.792287],[-119.214524,40.79225],[-119.214611,40.792212],[-119.214159,40.791618],[-119.214078,40.791653],[-119.213997,40.791687]]]}},{"type":"Feature","properties":{"class":"in city"},"geometry":{"type":"Polygon","coordinates":[[[-119.216392,40.794852],[-119.216834,40.79545],[-119.216924,40.795412],[-119.217013,40.795373],[-119.216561,40.794779],[-119.216477,40.794816],[-119.216392,40.794852]]]}},{"type":"Feature","properties":{"class":"in city"},"geometry":{"type":"Polygon","coordinates":[[[-119.196781,40.778601],[-119.196827,40.778539],[-119.196873,40.778478],[-119.196091,40.778134],[-119.196042,40.778201],[-119.195993,40.778267],[-119.196781,40.778601]]]}},{"type":"Feature","properties":{"class":"in city"},"geometry":{"type":"Polygon","coordinates":[[[-119.192618,40.776781],[-119.192666,40.776716],[-119.192714,40.776652],[-119.191933,40.776309],[-119.191882,40.776377],[-119.191831,40.776445],[-119.192618,40.776781]]]}},{"type":"Feature","properties":{"class":"in city"},"geometry":{"type":"Polygon","coordinates":[[[-119.198157,40.77593],[-119.198093,40.775882],[-119.19803,40.775833],[-119.197965,40.775883],[-119.197901,40.775933],[-119.197838,40.775983],[-119.197775,40.776034],[-119.197712,40.776085],[-119.19765,40.776136],[-119.197589,40.776188],[-119.197527,40.77624],[-119.197467,40.776292],[-119.197406,40.776345],[-119.197542,40.776435],[-119.197602,40.776383],[-119.197662,40.776331],[-119.197722,40.77628],[-119.197783,40.776229],[-119.197844,40.776179],[-119.197906,40.776128],[-119.197968,40.776078],[-119.198031,40.776029],[-119.198094,40.775979],[-119.198157,40.77593]]]}},{"type":"Feature","properties":{"class":"in city"},"geometry":{"type":"Polygon","coordinates":[[[-119.194762,40.773349],[-119.194124,40.772863],[-119.194054,40.772917],[-119.193984,40.772972],[-119.194629,40.773451],[-119.194695,40.7734],[-119.194762,40.773349]]]}},{"type":"Feature","properties":{"class":"in city"},"geometry":{"type":"Polygon","coordinates":[[[-119.201485,40.774932],[-119.201034,40.774337],[-119.200948,40.774376],[-119.200862,40.774415],[-119.201325,40.775004],[-119.201405,40.774968],[-119.201485,40.774932]]]}},{"type":"Feature","properties":{"class":"in city"},"geometry":{"type":"Polygon","coordinates":[[[-119.204534,40.773956],[-119.204301,40.773293],[-119.204204,40.773314],[-119.204108,40.773335],[-119.204355,40.773995],[-119.204445,40.773975],[-119.204534,40.773956]]]}},{"type":"Feature","properties":{"class":"in city"},"geometry":{"type":"Polygon","coordinates":[[[-119.199085,40.77177],[-119.198633,40.771176],[-119.198545,40.771215],[-119.198456,40.771255],[-119.198917,40.771845],[-119.199001,40.771807],[-119.199085,40.77177]]]}},{"type":"Feature","properties":{"class":"in city"},"geometry":{"type":"Polygon","coordinates":[[[-119.203292,40.77043],[-119.203058,40.769767],[-119.202966,40.769786],[-119.202874,40.769806],[-119.203117,40.770467],[-119.203204,40.770448],[-119.203292,40.77043]]]}},{"type":"Feature","properties":{"class":"in city"},"geometry":{"type":"Polygon","coordinates":[[[-119.207812,40.773614],[-119.207812,40.772927],[-119.207712,40.772928],[-119.207611,40.772929],[-119.207625,40.773615],[-119.207719,40.773614],[-119.207812,40.773614]]]}},{"type":"Feature","properties":{"class":"in city"},"geometry":{"type":"Polygon","coordinates":[[[-119.207812,40.769195],[-119.207812,40.768508],[-119.207711,40.768509],[-119.207609,40.76851],[-119.207619,40.769196],[-119.207716,40.769195],[-119.207812,40.769195]]]}},{"type":"Feature","properties":{"class":"in city"},"geometry":{"type":"Polygon","coordinates":[[[-119.212337,40.770401],[-119.21257,40.769739],[-119.212478,40.76972],[-119.212385,40.769702],[-119.212161,40.770367],[-119.212249,40.770384],[-119.212337,40.770401]]]}},{"type":"Feature","properties":{"class":"in city"},"geometry":{"type":"Polygon","coordinates":[[[-119.211094,40.773928],[-119.211328,40.773265],[-119.211231,40.773246],[-119.211133,40.773227],[-119.210913,40.773893],[-119.211004,40.77391],[-119.211094,40.773928]]]}},{"type":"Feature","properties":{"class":"in city"},"geometry":{"type":"Polygon","coordinates":[[[-119.214158,40.774877],[-119.214609,40.774282],[-119.214522,40.774245],[-119.214434,40.774208],[-119.213995,40.774807],[-119.214077,40.774842],[-119.214158,40.774877]]]}},{"type":"Feature","properties":{"class":"in city"},"geometry":{"type":"Polygon","coordinates":[[[-119.216558,40.771715],[-119.21701,40.771121],[-119.216926,40.771085],[-119.216843,40.771049],[-119.2164,40.771647],[-119.21648,40.771681],[-119.216558,40.771715]]]}},{"type":"Feature","properties":{"class":"in city"},"geometry":{"type":"Polygon","coordinates":[[[-119.217528,40.776996],[-119.217665,40.776907],[-119.217603,40.776852],[-119.217541,40.776798],[-119.217478,40.776744],[-119.217414,40.776691],[-119.217351,40.776637],[-119.217286,40.776584],[-119.217221,40.776532],[-119.217156,40.77648],[-119.21709,40.776428],[-119.217024,40.776377],[-119.216896,40.776474],[-119.216962,40.776524],[-119.217027,40.776575],[-119.217091,40.776627],[-119.217155,40.776678],[-119.217218,40.776731],[-119.217281,40.776783],[-119.217343,40.776836],[-119.217405,40.776889],[-119.217467,40.776942],[-119.217528,40.776996]]]}},{"type":"Feature","properties":{"class":"in city"},"geometry":{"type":"Polygon","coordinates":[[[-119.220904,40.773271],[-119.221542,40.772786],[-119.221471,40.772732],[-119.2214,40.772679],[-119.220769,40.77317],[-119.220836,40.77322],[-119.220904,40.773271]]]}},{"type":"Feature","properties":{"class":"in city"},"geometry":{"type":"Polygon","coordinates":[[[-119.223143,40.776772],[-119.22393,40.776435],[-119.223883,40.776372],[-119.223836,40.776309],[-119.223054,40.776652],[-119.223099,40.776712],[-119.223143,40.776772]]]}},{"type":"Feature","properties":{"class":"in city"},"geometry":{"type":"Polygon","coordinates":[[[-119.218987,40.778601],[-119.219775,40.778267],[-119.219727,40.778201],[-119.219677,40.778134],[-119.218896,40.778478],[-119.218942,40.778539],[-119.218987,40.778601]]]}},{"type":"Feature","properties":{"class":"in city"},"geometry":{"type":"Polygon","coordinates":[[[-119.220191,40.780944],[-119.221066,40.780776],[-119.221042,40.780703],[-119.221017,40.780629],[-119.220145,40.780806],[-119.220168,40.780875],[-119.220191,40.780944]]]}},{"type":"Feature","properties":{"class":"in city"},"geometry":{"type":"Polygon","coordinates":[[[-119.224829,40.779995],[-119.225703,40.779824],[-119.225679,40.779754],[-119.225655,40.779683],[-119.224783,40.779861],[-119.224806,40.779928],[-119.224829,40.779995]]]}},{"type":"Feature","properties":{"class":"in city"},"geometry":{"type":"Polygon","coordinates":[[[-119.22637,40.783447],[-119.227273,40.783455],[-119.227274,40.783378],[-119.227275,40.783301],[-119.226372,40.783301],[-119.226371,40.783374],[-119.22637,40.783447]]]}},{"type":"Feature","properties":{"class":"in city"},"geometry":{"type":"Polygon","coordinates":[[[-119.220556,40.783444],[-119.221459,40.783454],[-119.22146,40.783378],[-119.221461,40.783302],[-119.220558,40.783302],[-119.220557,40.783373],[-119.220556,40.783444]]]}},{"type":"Feature","properties":{"class":"in city"},"geometry":{"type":"Polygon","coordinates":[[[-119.220058,40.78593],[-119.220926,40.786118],[-119.220953,40.786044],[-119.22098,40.785971],[-119.220108,40.785793],[-119.220083,40.785862],[-119.220058,40.78593]]]}},{"type":"Feature","properties":{"class":"in city"},"geometry":{"type":"Polygon","coordinates":[[[-119.224699,40.78687],[-119.225568,40.787055],[-119.225594,40.786985],[-119.22562,40.786915],[-119.224748,40.786737],[-119.224723,40.786804],[-119.224699,40.78687]]]}},{"type":"Feature","properties":{"class":"in city"},"geometry":{"type":"Polygon","coordinates":[[[-119.21873,40.788233],[-119.219504,40.788585],[-119.219556,40.78852],[-119.219607,40.788454],[-119.218825,40.788111],[-119.218778,40.788172],[-119.21873,40.788233]]]}},{"type":"Feature","properties":{"class":"in city"},"geometry":{"type":"Polygon","coordinates":[[[-119.220773,40.793323],[-119.221404,40.793814],[-119.221475,40.793761],[-119.221546,40.793708],[-119.220908,40.793222],[-119.22084,40.793273],[-119.220773,40.793323]]]}},{"type":"Feature","properties":{"class":"in city"},"geometry":{"type":"Polygon","coordinates":[[[-119.216847,40.791109],[-119.216966,40.791212],[-119.217035,40.791166],[-119.217104,40.79112],[-119.217172,40.791074],[-119.21724,40.791027],[-119.217307,40.79098],[-119.217375,40.790932],[-119.217441,40.790884],[-119.217507,40.790836],[-119.217573,40.790787],[-119.217639,40.790738],[-119.217511,40.790641],[-119.217447,40.79069],[-119.217382,40.790738],[-119.217316,40.790785],[-119.21725,40.790832],[-119.217184,40.790879],[-119.217118,40.790926],[-119.217051,40.790972],[-119.216983,40.791018],[-119.216915,40.791064],[-119.216847,40.791109]]]}},{"type":"Feature","properties":{"class":"2/10"},"geometry":{"type":"Polygon","coordinates":[[[-119.19553,40.781192],[-119.195579,40.781202],[-119.195645,40.781017],[-119.195596,40.781007],[-119.19553,40.781192]]]}},{"type":"Feature","properties":{"class":"2/10"},"geometry":{"type":"Polygon","coordinates":[[[-119.19085,40.780315],[-119.190899,40.780325],[-119.190964,40.78014],[-119.190916,40.78013],[-119.19085,40.780315]]]}},{"type":"Feature","properties":{"class":"2/10"},"geometry":{"type":"Polygon","coordinates":[[[-119.210482,40.79263],[-119.210495,40.792667],[-119.210739,40.792617],[-119.210726,40.79258],[-119.210482,40.79263]]]}},{"type":"Feature","properties":{"class":"2/10"},"geometry":{"type":"Polygon","coordinates":[[[-119.21172,40.796152],[-119.211733,40.796189],[-119.211977,40.796139],[-119.211964,40.796102],[-119.21172,40.796152]]]}},{"type":"Feature","properties":{"class":"playa"},"geometry":{"type":"Polygon","coordinates":[[[-119.204074,40.78072],[-119.204111,40.780746],[-119.204284,40.780606],[-119.204247,40.78058],[-119.204074,40.78072]]]}},{"type":"Feature","properties":{"class":"man"},"geometry":{"type":"Polygon","coordinates":[[[-119.205719,40.783223],[-119.205719,40.783261],[-119.205972,40.783261],[-119.205972,40.783223],[-119.205719,40.783223]]]}},{"type":"Feature","properties":{"class":"playa"},"geometry":{"type":"Polygon","coordinates":[[[-119.211175,40.786113],[-119.211209,40.786142],[-119.211396,40.786012],[-119.211362,40.785984],[-119.211175,40.786113]]]}},{"type":"Feature","properties":{"class":"temple"},"geometry":{"type":"Polygon","coordinates":[[[-119.198811,40.787697],[-119.198812,40.787736],[-119.199065,40.787733],[-119.199064,40.787695],[-119.198811,40.787697]]]}},{"type":"Feature","properties":{},"geometry":{"type":"Polygon","coordinates":[[[-119.1944,40.796784],[-119.194285,40.796717],[-119.194254,40.796748],[-119.194369,40.796814],[-119.1944,40.796784]]]}},{"type":"Feature","properties":{},"geometry":{"type":"Polygon","coordinates":[[[-119.188538,40.791736],[-119.188466,40.791641],[-119.188422,40.79166],[-119.188494,40.791755],[-119.188538,40.791736]]]}},{"type":"Feature","properties":{},"geometry":{"type":"Polygon","coordinates":[[[-119.206729,40.798692],[-119.206737,40.798593],[-119.20665,40.798589],[-119.206642,40.798688],[-119.206729,40.798692]]]}},{"type":"Feature","properties":{},"geometry":{"type":"Polygon","coordinates":[[[-119.203561,40.800325],[-119.203585,40.800228],[-119.2035,40.800215],[-119.203476,40.800312],[-119.203561,40.800325]]]}},{"type":"Feature","properties":{},"geometry":{"type":"Polygon","coordinates":[[[-119.201426,40.797917],[-119.201467,40.797824],[-119.201385,40.797803],[-119.201344,40.797896],[-119.201426,40.797917]]]}},{"type":"Feature","properties":{},"geometry":{"type":"Polygon","coordinates":[[[-119.185486,40.777749],[-119.185611,40.777778],[-119.185636,40.777715],[-119.185512,40.777686],[-119.185486,40.777749]]]}},{"type":"Feature","properties":{},"geometry":{"type":"Polygon","coordinates":[[[-119.183919,40.777291],[-119.183795,40.777262],[-119.183769,40.777325],[-119.183893,40.777354],[-119.183919,40.777291]]]}},{"type":"Feature","properties":{"class":"in city"},"geometry":{"type":"Polygon","coordinates":[[[-119.222016,40.789672],[-119.222793,40.790022],[-119.222842,40.789958],[-119.222891,40.789895],[-119.222109,40.789552],[-119.222063,40.789612],[-119.222016,40.789672]]]}}]}